NORAD_CAT_ID,OBJECT_NAME,OBJECT_TYPE,EPOCH,MEAN_MOTION,ECCENTRICITY,INCLINATION,RA_OF_ASC_NODE,ARG_OF_PERICENTER,MEAN_ANOMALY,BSTAR,MEAN_MOTION_DOT,MEAN_MOTION_DDOT,TLE_LINE0,TLE_LINE1,TLE_LINE2,SEMIMAJOR_AXIS,PERIOD,APOGEE,PERIGEE,DECAYED
54810.0,STARLINK-5408,PAYLOAD,2024-04-07 19:25:49,15.08837693,0.000139,53.2156,290.2657,85.9374,274.1777,-2.3958e-05,-6.69e-06,0.0,0 STARLINK-5408,1 54810U 22175BE  24098.80960284 -.00000669  00000-0 -23958-4 0  9999,2 54810  53.2156 290.2657 0001390  85.9374 274.1777 15.08837693 74390,6917.887,95.438,540.714,538.791,0.0
54810.0,STARLINK-5408,PAYLOAD,2024-04-08 12:55:06,15.08815402,0.000196,53.2137,286.9934,91.7976,268.3241,-8.7523e-05,-1.68e-05,0.0,0 STARLINK-5408,1 54810U 22175BE  24099.53826677 -.00001680  00000-0 -87523-4 0  9999,2 54810  53.2137 286.9934 0001960  91.7976 268.3241 15.08815402 72343,6917.956,95.439,541.176,538.465,0.0
54810.0,STARLINK-5408,PAYLOAD,2024-04-08 19:16:37,15.08843093,0.0002163,53.2137,285.8051,83.2114,276.9124,0.00014964,2.094e-05,0.0,0 STARLINK-5408,1 54810U 22175BE  24099.80320651  .00002094  00000-0  14964-3 0  9996,2 54810  53.2137 285.8051 0002163  83.2114 276.9124 15.08843093 72383,6917.871,95.437,541.232,538.24,0.0
54810.0,STARLINK-5408,PAYLOAD,2024-04-09 12:45:51,15.08845127,0.0001575,53.2129,282.5328,53.6306,306.4831,0.00013754,1.902e-05,0.0,0 STARLINK-5408,1 54810U 22175BE  24100.53184717  .00001902  00000-0  13754-3 0  9993,2 54810  53.2129 282.5328 0001575  53.6306 306.4831 15.08845127 74651,6917.865,95.437,540.819,538.64,0.0
54810.0,STARLINK-5408,PAYLOAD,2024-04-09 19:07:23,15.08846618,0.0001714,53.2134,281.3434,72.3761,287.7418,0.00020874,3.036e-05,0.0,0 STARLINK-5408,1 54810U 22175BE  24100.79680364  .00003036  00000-0  20874-3 0  9991,2 54810  53.2134 281.3434 0001714  72.3761 287.7418 15.08846618 74692,6917.86,95.437,540.911,538.539,0.0
54810.0,STARLINK-5408,PAYLOAD,2024-04-10 04:39:42,15.08839737,0.0002498,53.2116,279.5584,88.5062,271.6216,0.00031461,4.722e-05,0.0,0 STARLINK-5408,1 54810U 22175BE  24101.19424285  .00004722  00000-0  31461-3 0  9991,2 54810  53.2116 279.5584 0002498  88.5062 271.6216 15.08839737 72599,6917.881,95.438,541.474,538.018,0.0
54810.0,STARLINK-5408,PAYLOAD,2024-04-10 12:36:39,15.0884634,0.0002519,53.2156,278.0757,87.3214,272.8067,2.571e-06,-2.48e-06,0.0,0 STARLINK-5408,1 54810U 22175BE  24101.52545229 -.00000248  00000-0  25710-5 0  9992,2 54810  53.2156 278.0757 0002519  87.3214 272.8067 15.08846340 72640,6917.861,95.437,541.469,537.983,0.0
54810.0,STARLINK-5408,PAYLOAD,2024-04-10 18:58:11,15.0884701,0.0002215,53.2159,276.8856,82.8597,277.2647,8.1791e-06,-1.58e-06,0.0,0 STARLINK-5408,1 54810U 22175BE  24101.79040946 -.00000158  00000-0  81791-5 0  9998,2 54810  53.2159 276.8856 0002215  82.8597 277.2647 15.08847010 74848,6917.859,95.437,541.256,538.192,0.0
54810.0,STARLINK-5408,PAYLOAD,2024-04-11 04:30:30,15.08839493,0.0002584,53.2169,275.1016,86.5629,273.5658,4.2679e-05,3.91e-06,0.0,0 STARLINK-5408,1 54810U 22175BE  24102.18785321  .00000391  00000-0  42679-4 0  9994,2 54810  53.2169 275.1016 0002584  86.5629 273.5658 15.08839493 74909,6917.882,95.438,541.535,537.959,0.0
54810.0,STARLINK-5408,PAYLOAD,2024-04-11 17:13:34,15.08874945,0.0002333,53.2185,272.7232,82.5811,277.5446,-0.00049958,-8.238e-05,0.0,0 STARLINK-5408,1 54810U 22175BE  24102.71776543 -.00008238  00000-0 -49958-3 0  9995,2 54810  53.2185 272.7232 0002333  82.5811 277.5446 15.08874945 72820,6917.774,95.435,541.252,538.025,0.0
54810.0,STARLINK-5408,PAYLOAD,2024-04-12 04:21:16,15.08854213,0.0002148,53.2179,270.6403,85.7495,274.3743,-0.00017781,-3.118e-05,0.0,0 STARLINK-5408,1 54810U 22175BE  24103.18144651 -.00003118  00000-0 -17781-3 0  9997,2 54810  53.2179 270.6403 0002148  85.7495 274.3743 15.08854213 72895,6917.837,95.437,541.188,538.216,0.0
54810.0,STARLINK-5408,PAYLOAD,2024-04-12 10:42:49,15.08840566,0.0002121,53.2178,269.4507,84.8587,275.2647,4.4331e-05,4.17e-06,0.0,0 STARLINK-5408,1 54810U 22175BE  24103.44640958  .00000417  00000-0  44331-4 0  9996,2 54810  53.2178 269.4507 0002121  84.8587 275.2647 15.08840566 72932,6917.879,95.438,541.211,538.276,0.0
54810.0,STARLINK-5408,PAYLOAD,2024-04-12 15:28:59,15.08842223,0.0002107,53.2176,268.5586,85.0438,275.0795,5.8315e-05,6.4e-06,0.0,0 STARLINK-5408,1 54810U 22175BE  24103.64512814  .00000640  00000-0  58315-4 0  9992,2 54810  53.2176 268.5586 0002107  85.0438 275.0795 15.08842223 75127,6917.874,95.437,541.196,538.281,0.0
54810.0,STARLINK-5408,PAYLOAD,2024-04-13 10:33:36,15.08837596,0.0001851,53.2166,264.9897,86.2155,273.9049,9.7346e-05,1.261e-05,0.0,0 STARLINK-5408,1 54810U 22175BE  24104.44000964  .00001261  00000-0  97346-4 0  9996,2 54810  53.2166 264.9897 0001851  86.2155 273.9049 15.08837596 75244,6917.888,95.438,541.033,538.472,0.0
54810.0,STARLINK-5408,PAYLOAD,2024-04-13 16:55:09,15.08841222,0.0001742,53.216,263.7995,87.3575,272.7616,6.2248e-05,7.03e-06,0.0,0 STARLINK-5408,1 54810U 22175BE  24104.70496893  .00000703  00000-0  62248-4 0  9998,2 54810  53.2160 263.7995 0001742  87.3575 272.7616 15.08841222 73124,6917.877,95.437,540.947,538.537,0.0
54810.0,STARLINK-5408,PAYLOAD,2024-04-14 16:45:56,15.08839705,0.0001912,53.2165,259.3401,77.509,282.6116,5.3475e-05,5.63e-06,0.0,0 STARLINK-5408,1 54810U 22175BE  24105.69857256  .00000563  00000-0  53475-4 0  9997,2 54810  53.2165 259.3401 0001912  77.5090 282.6116 15.08839705 75438,6917.881,95.438,541.069,538.424,0.0
54810.0,STARLINK-5408,PAYLOAD,2024-04-15 13:25:56,15.08845371,0.0001754,53.2164,255.4733,102.2123,257.9065,0.00011696,1.574e-05,0.0,0 STARLINK-5408,1 54810U 22175BE  24106.55968467  .00001574  00000-0  11696-3 0  9991,2 54810  53.2164 255.4733 0001754 102.2123 257.9065 15.08845371 73408,6917.864,95.437,540.942,538.516,0.0
54810.0,STARLINK-5408,PAYLOAD,2024-04-16 13:16:43,15.08846489,0.0001552,53.2169,251.013,95.7653,264.3516,9.8723e-05,1.284e-05,0.0,0 STARLINK-5408,1 54810U 22175BE  24107.55328552  .00001284  00000-0  98723-4 0  9992,2 54810  53.2169 251.0130 0001552  95.7653 264.3516 15.08846489 73556,6917.861,95.437,540.799,538.652,0.0
54810.0,STARLINK-5408,PAYLOAD,2024-04-16 14:52:06,15.08848523,0.000174,53.2177,250.7166,95.775,264.344,0.00013725,1.897e-05,0.0,0 STARLINK-5408,1 54810U 22175BE  24107.61952490  .00001897  00000-0  13725-3 0  9991,2 54810  53.2177 250.7166 0001740  95.7750 264.3440 15.08848523 75725,6917.854,95.437,540.923,538.516,0.0
54810.0,STARLINK-5408,PAYLOAD,2024-04-16 16:27:29,15.08854185,0.0001405,53.2151,250.4183,77.7717,282.3433,0.00022494,3.295e-05,0.0,0 STARLINK-5408,1 54810U 22175BE  24107.68576252  .00003295  00000-0  22494-3 0  9993,2 54810  53.2151 250.4183 0001405  77.7717 282.3433 15.08854185 75738,6917.837,95.437,540.674,538.73,0.0
54810.0,STARLINK-5408,PAYLOAD,2024-04-17 13:07:30,15.08843739,0.0001534,53.2168,246.5517,79.2337,280.8828,-1.52e-05,-5.3e-06,0.0,0 STARLINK-5408,1 54810U 22175BE  24108.54688450 -.00000530  00000-0 -15200-4 0  9992,2 54810  53.2168 246.5517 0001534  79.2337 280.8828 15.08843739 73700,6917.869,95.437,540.795,538.673,0.0
54810.0,STARLINK-5408,PAYLOAD,2024-04-17 14:42:53,15.08844711,0.0001596,53.2166,246.254,78.2249,281.8922,-2.1024e-06,-3.22e-06,0.0,0 STARLINK-5408,1 54810U 22175BE  24108.61312386 -.00000322  00000-0 -21024-5 0  9993,2 54810  53.2166 246.2540 0001596  78.2249 281.8922 15.08844711 75877,6917.866,95.437,540.835,538.627,0.0
54810.0,STARLINK-5408,PAYLOAD,2024-04-17 16:18:16,15.08850219,0.0001575,53.2174,245.9572,87.9584,272.1588,7.2017e-05,8.59e-06,0.0,0 STARLINK-5408,1 54810U 22175BE  24108.67936071  .00000859  00000-0  72017-4 0  9992,2 54810  53.2174 245.9572 0001575  87.9584 272.1588 15.08850219 75885,6917.849,95.437,540.804,538.625,0.0
54810.0,STARLINK-5408,PAYLOAD,2024-04-18 16:09:04,15.08835542,0.000146,53.2151,241.4988,82.606,277.5098,-6.9481e-05,-1.393e-05,0.0,0 STARLINK-5408,1 54810U 22175BE  24109.67297028 -.00001393  00000-0 -69481-4 0  9992,2 54810  53.2151 241.4988 0001460  82.6060 277.5098 15.08835542 73870,6917.894,95.438,540.769,538.749,0.0
54810.0,STARLINK-5408,PAYLOAD,2024-04-19 14:24:28,15.08842727,0.0001541,53.2159,237.3371,83.0393,277.0775,8.1432e-05,1.008e-05,0.0,0 STARLINK-5408,1 54810U 22175BE  24110.60033006  .00001008  00000-0  81432-4 0  9992,2 54810  53.2159 237.3371 0001541  83.0393 277.0775 15.08842727 76178,6917.872,95.437,540.803,538.671,0.0
54810.0,STARLINK-5408,PAYLOAD,2024-04-19 15:59:51,15.08856427,0.0001242,53.2156,237.0382,110.517,249.5956,0.00048365,7.421e-05,0.0,0 STARLINK-5408,1 54810U 22175BE  24110.66656490  .00007421  00000-0  48365-3 0  9998,2 54810  53.2156 237.0382 0001242 110.5170 249.5956 15.08856427 74020,6917.83,95.437,540.554,538.836,0.0
54810.0,STARLINK-5408,PAYLOAD,2024-04-20 12:39:52,15.08853001,0.0001803,53.2171,233.1749,62.6502,297.4673,0.00026699,3.965e-05,0.0,0 STARLINK-5408,1 54810U 22175BE  24111.52768630  .00003965  00000-0  26699-3 0  9999,2 54810  53.2171 233.1749 0001803  62.6502 297.4673 15.08853001 74157,6917.841,95.437,540.953,538.458,0.0
54810.0,STARLINK-5408,PAYLOAD,2024-04-20 14:15:16,15.08815892,0.0002004,53.217,232.8728,50.3071,309.8098,-0.00046597,-7.692e-05,0.0,0 STARLINK-5408,1 54810U 22175BE  24111.59393945 -.00007692  00000-0 -46597-3 0  9991,2 54810  53.2170 232.8728 0002004  50.3071 309.8098 15.08815892 76324,6917.954,95.439,541.205,538.433,0.0
54810.0,STARLINK-5408,PAYLOAD,2024-04-20 15:50:40,15.0880836,0.0002491,53.2173,232.5786,44.0988,316.0203,-0.00056954,-9.334e-05,0.0,0 STARLINK-5408,1 54810U 22175BE  24111.66018565 -.00009334  00000-0 -56954-3 0  9994,2 54810  53.2173 232.5786 0002491  44.0988 316.0203 15.08808360 74176,6917.977,95.44,541.565,538.119,0.0
54810.0,STARLINK-5408,PAYLOAD,2024-04-21 14:06:03,15.08843475,0.0001448,53.2173,228.4103,103.6777,256.4376,0.00018633,2.679e-05,0.0,0 STARLINK-5408,1 54810U 22175BE  24112.58754036  .00002679  00000-0  18633-3 0  9991,2 54810  53.2173 228.4103 0001448 103.6777 256.4376 15.08843475 76471,6917.87,95.437,540.736,538.733,0.0
